{
  "type": "FeatureCollection",
  "features": [
    {
      "type": "Feature",
      "properties": {
        "norad_id": 30153,
        "name": "FENGYUN 1C DEB",
        "group": "fengyun-1c-debris",
        "lat": -50.29211906672113,
        "lon": 135.5205760098137,
        "alt_km": 1107.5322047515183,
        "timestamp": "2025-12-04T19:33:59.877819+00:00",
        "meta_object_name": "FENGYUN 1C DEB",
        "meta_object_id": "1999-025TJ",
        "meta_epoch": "2025-12-03T21:50:19.984992",
        "meta_mean_motion": 13.78731597,
        "meta_eccentricity": 0.02008215,
        "meta_inclination": 100.4661,
        "meta_ra_of_asc_node": 327.3826,
        "meta_arg_of_pericenter": 27.9772,
        "meta_mean_anomaly": 33.217,
        "meta_ephemeris_type": 0,
        "meta_classification_type": "U",
        "meta_norad_cat_id": 30153,
        "meta_element_set_no": 999,
        "meta_rev_at_epoch": 94653,
        "meta_bstar": 0.001678671,
        "meta_mean_motion_dot": 1.931e-05,
        "meta_mean_motion_ddot": 0,
        "tle_line1": "1 30153U 99025TJ  25337.90995353  .00001931  00000+0  16787-2 0  9994",
        "tle_line2": "2 30153 100.4661 327.3826 0200821  27.9772  33.2170 13.78731597946534"
      },
      "geometry": {
        "type": "Point",
        "coordinates": [
          135.5205760098137,
          -50.29211906672113
        ]
      }
    },
    {
      "type": "Feature",
      "properties": {
        "norad_id": 30154,
        "name": "FENGYUN 1C DEB",
        "group": "fengyun-1c-debris",
        "lat": -77.19955742934492,
        "lon": 62.23671224174196,
        "alt_km": 880.3660418287918,
        "timestamp": "2025-12-04T19:33:59.877828+00:00",
        "meta_object_name": "FENGYUN 1C DEB",
        "meta_object_id": "1999-025TK",
        "meta_epoch": "2025-12-02T02:15:41.257728",
        "meta_mean_motion": 13.85922523,
        "meta_eccentricity": 0.01824653,
        "meta_inclination": 98.4506,
        "meta_ra_of_asc_node": 18.9121,
        "meta_arg_of_pericenter": 227.7645,
        "meta_mean_anomaly": 161.336,
        "meta_ephemeris_type": 0,
        "meta_classification_type": "U",
        "meta_norad_cat_id": 30154,
        "meta_element_set_no": 999,
        "meta_rev_at_epoch": 94837,
        "meta_bstar": 0.0017171262,
        "meta_mean_motion_dot": 2.209e-05,
        "meta_mean_motion_ddot": 0,
        "tle_line1": "1 30154U 99025TK  25336.09422752  .00002209  00000+0  17171-2 0  9999",
        "tle_line2": "2 30154  98.4506  18.9121 0182465 227.7645 161.3360 13.85922523948379"
      },
      "geometry": {
        "type": "Point",
        "coordinates": [
          62.23671224174196,
          -77.19955742934492
        ]
      }
    },
    {
      "type": "Feature",
      "properties": {
        "norad_id": 30155,
        "name": "FENGYUN 1C DEB",
        "group": "fengyun-1c-debris",
        "lat": 53.276635047913196,
        "lon": -114.49270904535821,
        "alt_km": 1069.7478216717882,
        "timestamp": "2025-12-04T19:33:59.877837+00:00",
        "meta_object_name": "FENGYUN 1C DEB",
        "meta_object_id": "1999-025TL",
        "meta_epoch": "2025-12-04T03:14:21.292224",
        "meta_mean_motion": 13.73752967,
        "meta_eccentricity": 0.02418855,
        "meta_inclination": 99.7525,
        "meta_ra_of_asc_node": 51.4847,
        "meta_arg_of_pericenter": 6.209,
        "meta_mean_anomaly": 354.1965,
        "meta_ephemeris_type": 0,
        "meta_classification_type": "U",
        "meta_norad_cat_id": 30155,
        "meta_element_set_no": 999,
        "meta_rev_at_epoch": 93746,
        "meta_bstar": 0.0030980204,
        "meta_mean_motion_dot": 3.531e-05,
        "meta_mean_motion_ddot": 0,
        "tle_line1": "1 30155U 99025TL  25338.13496866  .00003531  00000+0  30980-2 0  9996",
        "tle_line2": "2 30155  99.7525  51.4847 0241885   6.2090 354.1965 13.73752967937469"
      },
      "geometry": {
        "type": "Point",
        "coordinates": [
          -114.49270904535821,
          53.276635047913196
        ]
      }
    },
    {
      "type": "Feature",
      "properties": {
        "norad_id": 30156,
        "name": "FENGYUN 1C DEB",
        "group": "fengyun-1c-debris",
        "lat": 4.328996308194793,
        "lon": 126.93258840752439,
        "alt_km": 1007.9284641417707,
        "timestamp": "2025-12-04T19:33:59.877847+00:00",
        "meta_object_name": "FENGYUN 1C DEB",
        "meta_object_id": "1999-025TM",
        "meta_epoch": "2025-12-03T08:41:31.729056",
        "meta_mean_motion": 13.80756146,
        "meta_eccentricity": 0.020016,
        "meta_inclination": 98.9176,
        "meta_ra_of_asc_node": 304.8793,
        "meta_arg_of_pericenter": 288.1138,
        "meta_mean_anomaly": 230.476,
        "meta_ephemeris_type": 0,
        "meta_classification_type": "U",
        "meta_norad_cat_id": 30156,
        "meta_element_set_no": 999,
        "meta_rev_at_epoch": 94561,
        "meta_bstar": 0.0024003,
        "meta_mean_motion_dot": 2.895e-05,
        "meta_mean_motion_ddot": 0,
        "tle_line1": "1 30156U 99025TM  25337.36217279  .00002895  00000+0  24003-2 0  9991",
        "tle_line2": "2 30156  98.9176 304.8793 0200160 288.1138 230.4760 13.80756146945619"
      },
      "geometry": {
        "type": "Point",
        "coordinates": [
          126.93258840752439,
          4.328996308194793
        ]
      }
    },
    {
      "type": "Feature",
      "properties": {
        "norad_id": 30157,
        "name": "FENGYUN 1C DEB",
        "group": "fengyun-1c-debris",
        "lat": 63.93463495027559,
        "lon": 57.36415203635457,
        "alt_km": 758.9542525471516,
        "timestamp": "2025-12-04T19:33:59.877856+00:00",
        "meta_object_name": "FENGYUN 1C DEB",
        "meta_object_id": "1999-025TN",
        "meta_epoch": "2025-12-04T06:13:49.285344",
        "meta_mean_motion": 14.44893119,
        "meta_eccentricity": 0.00369109,
        "meta_inclination": 98.7174,
        "meta_ra_of_asc_node": 75.075,
        "meta_arg_of_pericenter": 217.8089,
        "meta_mean_anomaly": 199.005,
        "meta_ephemeris_type": 0,
        "meta_classification_type": "U",
        "meta_norad_cat_id": 30157,
        "meta_element_set_no": 999,
        "meta_rev_at_epoch": 97950,
        "meta_bstar": 0.0054888101,
        "meta_mean_motion_dot": 0.00019275,
        "meta_mean_motion_ddot": 0,
        "tle_line1": "1 30157U 99025TN  25338.25959821  .00019275  00000+0  54888-2 0  9991",
        "tle_line2": "2 30157  98.7174  75.0750 0036910 217.8089 199.0050 14.44893119979500"
      },
      "geometry": {
        "type": "Point",
        "coordinates": [
          57.36415203635457,
          63.93463495027559
        ]
      }
    },
    {
      "type": "Feature",
      "properties": {
        "norad_id": 30160,
        "name": "FENGYUN 1C DEB",
        "group": "fengyun-1c-debris",
        "lat": 32.734219973039885,
        "lon": 114.08037231666604,
        "alt_km": 840.5130084075863,
        "timestamp": "2025-12-04T19:33:59.877864+00:00",
        "meta_object_name": "FENGYUN 1C DEB",
        "meta_object_id": "1999-025TR",
        "meta_epoch": "2025-12-04T02:49:55.563744",
        "meta_mean_motion": 13.42874618,
        "meta_eccentricity": 0.03423543,
        "meta_inclination": 98.8855,
        "meta_ra_of_asc_node": 287.6932,
        "meta_arg_of_pericenter": 149.5917,
        "meta_mean_anomaly": 228.1071,
        "meta_ephemeris_type": 0,
        "meta_classification_type": "U",
        "meta_norad_cat_id": 30160,
        "meta_element_set_no": 999,
        "meta_rev_at_epoch": 92298,
        "meta_bstar": 0.0011050455,
        "meta_mean_motion_dot": 8.56e-06,
        "meta_mean_motion_ddot": 0,
        "tle_line1": "1 30160U 99025TR  25338.11800421  .00000856  00000+0  11050-2 0  9990",
        "tle_line2": "2 30160  98.8855 287.6932 0342354 149.5917 228.1071 13.42874618922984"
      },
      "geometry": {
        "type": "Point",
        "coordinates": [
          114.08037231666604,
          32.734219973039885
        ]
      }
    },
    {
      "type": "Feature",
      "properties": {
        "norad_id": 30161,
        "name": "FENGYUN 1C DEB",
        "group": "fengyun-1c-debris",
        "lat": -42.85117507978097,
        "lon": 135.86492853241106,
        "alt_km": 928.6151684339093,
        "timestamp": "2025-12-04T19:33:59.877873+00:00",
        "meta_object_name": "FENGYUN 1C DEB",
        "meta_object_id": "1999-025TS",
        "meta_epoch": "2025-12-03T12:47:55.443840",
        "meta_mean_motion": 13.49671407,
        "meta_eccentricity": 0.03287653,
        "meta_inclination": 100.5042,
        "meta_ra_of_asc_node": 324.4231,
        "meta_arg_of_pericenter": 280.1288,
        "meta_mean_anomaly": 200.6248,
        "meta_ephemeris_type": 0,
        "meta_classification_type": "U",
        "meta_norad_cat_id": 30161,
        "meta_element_set_no": 999,
        "meta_rev_at_epoch": 92435,
        "meta_bstar": 0.0028846104,
        "meta_mean_motion_dot": 2.5e-05,
        "meta_mean_motion_ddot": 0,
        "tle_line1": "1 30161U 99025TS  25337.53328060  .00002500  00000+0  28846-2 0  9999",
        "tle_line2": "2 30161 100.5042 324.4231 0328765 280.1288 200.6248 13.49671407924351"
      },
      "geometry": {
        "type": "Point",
        "coordinates": [
          135.86492853241106,
          -42.85117507978097
        ]
      }
    }
  ]
}